TIANMU-1 20             
1 58661U 23208B   26166.30087647  .00006334  00000+0  20278-3 0  9994
2 58661  97.4450 283.2239 0006179 341.6797  18.4222 15.32739966137131
TIANMU-1 21             
1 58662U 23208C   26166.29205654  .00008038  00000+0  23865-3 0  9991
2 58662  97.4509 285.8875 0006080 331.9794  28.1121 15.35047953137273
TIANMU-1 22             
1 58663U 23208D   26166.30809517  .00005969  00000+0  20166-3 0  9993
2 58663  97.4504 282.5354 0003395  10.8909 349.2405 15.31035357137040
TIANMU-1 15             
1 58700U 24004A   26166.32934163  .00004756  00000+0  18220-3 0  9999
2 58700  97.4662 352.5193 0006895   9.0846 351.0517 15.27006595135493
TIANMU-1 16             
1 58701U 24004B   26166.31824351  .00004747  00000+0  18335-3 0  9993
2 58701  97.4607 351.7472 0006028  14.2781 345.8626 15.26731529135491
TIANMU-1 17             
1 58702U 24004C   26166.30369574  .00004633  00000+0  17907-3 0  9992
2 58702  97.4635 352.2169 0005709  20.5875 339.5592 15.26730706135488
TIANMU-1 18             
1 58703U 24004D   26166.28040308  .00004605  00000+0  17664-3 0  9990
2 58703  97.4654 352.4479 0004242  21.5666 338.5751 15.26988427135487
INSAT-3DS               
1 58990U 24033A   26165.99015010 -.00000151  00000+0  00000+0 0  9994
2 58990   0.0432 120.9528 0000980 312.8348 268.0485  1.00271552 47046
METEOR-M2 4             
1 59051U 24039A   26166.28419797  .00000000  00000+0  19622-4 0  9999
2 59051  98.7009 125.6061 0007180 166.3244 193.8129 14.22429378118991
GOES 19                 
1 60133U 24119A   26166.26630424 -.00000244  00000+0  00000+0 0  9997
2 60133   0.0484 155.7060 0000373  31.2013  97.3265  1.00271886  6942
MTG-S1                  
1 64723U 25143A   26166.25832123 -.00000028  00000+0  00000+0 0  9993
2 64723   0.6050 338.5232 0000986  10.9094   3.6370  1.00271856  3403
METOP-SGA1              
1 65159U 25172A   26166.16790381  .00000042  00000+0  38873-4 0  9997
2 65159  98.6644 225.9324 0000912  92.7937 267.3345 14.21509481 43508
FENGYUN 3H              
1 65815U 25219A   26166.27940105  .00000035  00000+0  36918-4 0  9991
2 65815  98.6768 107.0856 0001585  77.4942 282.6411 14.19920151 37119
